{"type": "FeatureCollection", "features": [ {"type": "Feature", "properties": {"norad_id": 37867, "name": "COSMOS 2476 (744)", "group": "gnss", "lat": 61.26936367067987, "lon": -158.75144223408196, "alt_km": 19163.215653662963, "timestamp": "2025-12-25T11:37:44.677733+00:00", "meta": {"OBJECT_NAME": "COSMOS 2476 (744)", "OBJECT_ID": "2011-064A", "EPOCH": "2025-12-24T09:57:47.072160", "MEAN_MOTION": 2.13103925, "ECCENTRICITY": 0.00245084, "INCLINATION": 65.1679, "RA_OF_ASC_NODE": 78.7766, "ARG_OF_PERICENTER": 235.0068, "MEAN_ANOMALY": 129.7601, "EPHEMERIS_TYPE": 0, "CLASSIFICATION_TYPE": "U", "NORAD_CAT_ID": 37867, "ELEMENT_SET_NO": 999, "REV_AT_EPOCH": 11004, "BSTAR": 0, "MEAN_MOTION_DOT": 1e-08, "MEAN_MOTION_DDOT": 0}, "tle": {"line1": "1 37867U 11064A   25358.41512815  .00000001  00000+0  00000+0 0  9992", "line2": "2 37867  65.1679  78.7766 0024508 235.0068 129.7601  2.13103925110049"}}, "geometry": {"type": "Point", "coordinates": [-158.75144223408196, 61.26936367067987]}}, {"type": "Feature", "properties": {"norad_id": 37868, "name": "COSMOS 2477 (745)", "group": "gnss", "lat": -60.63263308101309, "lon": 23.607271448184342, "alt_km": 19101.37477548704, "timestamp": "2025-12-25T11:37:44.677746+00:00", "meta": {"OBJECT_NAME": "COSMOS 2477 (745)", "OBJECT_ID": "2011-064B", "EPOCH": "2025-12-24T15:22:57.950400", "MEAN_MOTION": 2.13103036, "ECCENTRICITY": 0.00215718, "INCLINATION": 65.1748, "RA_OF_ASC_NODE": 78.8466, "ARG_OF_PERICENTER": 235.4688, "MEAN_ANOMALY": 123.4303, "EPHEMERIS_TYPE": 0, "CLASSIFICATION_TYPE": "U", "NORAD_CAT_ID": 37868, "ELEMENT_SET_NO": 999, "REV_AT_EPOCH": 11003, "BSTAR": 0, "MEAN_MOTION_DOT": 1e-08, "MEAN_MOTION_DDOT": 0}, "tle": {"line1": "1 37868U 11064B   25358.64094850  .00000001  00000+0  00000+0 0  9992", "line2": "2 37868  65.1748  78.8466 0021571 235.4688 123.4303  2.13103036110036"}}, "geometry": {"type": "Point", "coordinates": [23.607271448184342, -60.63263308101309]}}, {"type": "Feature", "properties": {"norad_id": 37869, "name": "COSMOS 2475 (743)", "group": "gnss", "lat": -53.21837674165825, "lon": -62.97396843061061, "alt_km": 19068.150880874116, "timestamp": "2025-12-25T11:37:44.677772+00:00", "meta": {"OBJECT_NAME": "COSMOS 2475 (743)", "OBJECT_ID": "2011-064C", "EPOCH": "2025-12-25T05:57:40.330080", "MEAN_MOTION": 2.1310165, "ECCENTRICITY": 0.0026773, "INCLINATION": 65.1818, "RA_OF_ASC_NODE": 78.8463, "ARG_OF_PERICENTER": 249.2295, "MEAN_ANOMALY": 171.5586, "EPHEMERIS_TYPE": 0, "CLASSIFICATION_TYPE": "U", "NORAD_CAT_ID": 37869, "ELEMENT_SET_NO": 999, "REV_AT_EPOCH": 11006, "BSTAR": 0, "MEAN_MOTION_DOT": -1e-08, "MEAN_MOTION_DDOT": 0}, "tle": {"line1": "1 37869U 11064C   25359.24838345 -.00000001  00000+0  00000+0 0  9996", "line2": "2 37869  65.1818  78.8463 0026773 249.2295 171.5586  2.13101650110068"}}, "geometry": {"type": "Point", "coordinates": [-62.97396843061061, -53.21837674165825]}}, {"type": "Feature", "properties": {"norad_id": 37948, "name": "BEIDOU-2 IGSO-5 (C10)", "group": "gnss", "lat": 47.97944485530636, "lon": 0.2708833544295008, "alt_km": 36096.62503393003, "timestamp": "2025-12-25T11:37:44.677787+00:00", "meta": {"OBJECT_NAME": "BEIDOU-2 IGSO-5 (C10)", "OBJECT_ID": "2011-073A", "EPOCH": "2025-12-24T17:40:34.414752", "MEAN_MOTION": 1.00288414, "ECCENTRICITY": 0.01097165, "INCLINATION": 47.9979, "RA_OF_ASC_NODE": 273.7118, "ARG_OF_PERICENTER": 222.1575, "MEAN_ANOMALY": 316.4289, "EPHEMERIS_TYPE": 0, "CLASSIFICATION_TYPE": "U", "NORAD_CAT_ID": 37948, "ELEMENT_SET_NO": 999, "REV_AT_EPOCH": 5138, "BSTAR": 0, "MEAN_MOTION_DOT": -1.39e-06, "MEAN_MOTION_DDOT": 0}, "tle": {"line1": "1 37948U 11073A   25358.73650943 -.00000139  00000+0  00000+0 0  9995", "line2": "2 37948  47.9979 273.7118 0109716 222.1575 316.4289  1.00288414 51383"}}, "geometry": {"type": "Point", "coordinates": [0.2708833544295008, 47.97944485530636]}}, {"type": "Feature", "properties": {"norad_id": 37951, "name": "LUCH 5A (SDCM/PRN 140)", "group": "gnss", "lat": -0.08688462398812831, "lon": 75.71324081128583, "alt_km": 35808.58049920531, "timestamp": "2025-12-25T11:37:44.677800+00:00", "meta": {"OBJECT_NAME": "LUCH 5A (SDCM/PRN 140)", "OBJECT_ID": "2011-074B", "EPOCH": "2025-12-24T22:27:17.315712", "MEAN_MOTION": 1.00268947, "ECCENTRICITY": 0.0005251, "INCLINATION": 8.3088, "RA_OF_ASC_NODE": 76.4049, "ARG_OF_PERICENTER": 192.019, "MEAN_ANOMALY": 329.1245, "EPHEMERIS_TYPE": 0, "CLASSIFICATION_TYPE": "U", "NORAD_CAT_ID": 37951, "ELEMENT_SET_NO": 999, "REV_AT_EPOCH": 5130, "BSTAR": 0, "MEAN_MOTION_DOT": -3.1e-07, "MEAN_MOTION_DDOT": 0}, "tle": {"line1": "1 37951U 11074B   25358.93561708 -.00000031  00000+0  00000+0 0  9993", "line2": "2 37951   8.3088  76.4049 0005251 192.0190 329.1245  1.00268947 51301"}}, "geometry": {"type": "Point", "coordinates": [75.71324081128583, -0.08688462398812831]}}, {"type": "Feature", "properties": {"norad_id": 38091, "name": "BEIDOU-2 G5 (C05)", "group": "gnss", "lat": -3.071397120288085, "lon": -32.54872824018313, "alt_km": 35736.69848908553, "timestamp": "2025-12-25T11:37:44.677812+00:00", "meta": {"OBJECT_NAME": "BEIDOU-2 G5 (C05)", "OBJECT_ID": "2012-008A", "EPOCH": "2025-12-24T23:39:02.942208", "MEAN_MOTION": 1.00269891, "ECCENTRICITY": 0.0013097, "INCLINATION": 3.1377, "RA_OF_ASC_NODE": 70.6643, "ARG_OF_PERICENTER": 232.2116, "MEAN_ANOMALY": 204.3728, "EPHEMERIS_TYPE": 0, "CLASSIFICATION_TYPE": "U", "NORAD_CAT_ID": 38091, "ELEMENT_SET_NO": 999, "REV_AT_EPOCH": 5062, "BSTAR": 0, "MEAN_MOTION_DOT": 7.7e-07, "MEAN_MOTION_DDOT": 0}, "tle": {"line1": "1 38091U 12008A   25358.98545072  .00000077  00000+0  00000+0 0  9997", "line2": "2 38091   3.1377  70.6643 0013097 232.2116 204.3728  1.00269891 50622"}}, "geometry": {"type": "Point", "coordinates": [-32.54872824018313, -3.071397120288085]}}, {"type": "Feature", "properties": {"norad_id": 38250, "name": "BEIDOU-2 M3 (C11)", "group": "gnss", "lat": -0.6012128213314226, "lon": 131.11886169249019, "alt_km": 21533.987451667737, "timestamp": "2025-12-25T11:37:44.677824+00:00", "meta": {"OBJECT_NAME": "BEIDOU-2 M3 (C11)", "OBJECT_ID": "2012-018A", "EPOCH": "2025-12-24T03:22:03.617760", "MEAN_MOTION": 1.86230154, "ECCENTRICITY": 0.00241099, "INCLINATION": 55.9106, "RA_OF_ASC_NODE": 310.7747, "ARG_OF_PERICENTER": 275.3713, "MEAN_ANOMALY": 84.3565, "EPHEMERIS_TYPE": 0, "CLASSIFICATION_TYPE": "U", "NORAD_CAT_ID": 38250, "ELEMENT_SET_NO": 999, "REV_AT_EPOCH": 9268, "BSTAR": 0, "MEAN_MOTION_DOT": -5.3e-07, "MEAN_MOTION_DDOT": 0}, "tle": {"line1": "1 38250U 12018A   25358.14031965 -.00000053  00000+0  00000+0 0  9999", "line2": "2 38250  55.9106 310.7747 0024109 275.3713  84.3565  1.86230154 92685"}}, "geometry": {"type": "Point", "coordinates": [131.11886169249019, -0.6012128213314226]}}, {"type": "Feature", "properties": {"norad_id": 38251, "name": "BEIDOU-2 M4 (C12)", "group": "gnss", "lat": -36.876452524412066, "lon": 160.56590557057598, "alt_km": 21507.011993345306, "timestamp": "2025-12-25T11:37:44.677836+00:00", "meta": {"OBJECT_NAME": "BEIDOU-2 M4 (C12)", "OBJECT_ID": "2012-018B", "EPOCH": "2025-12-24T01:44:14.261856", "MEAN_MOTION": 1.86229893, "ECCENTRICITY": 0.00152512, "INCLINATION": 55.8118, "RA_OF_ASC_NODE": 310.0049, "ARG_OF_PERICENTER": 279.3729, "MEAN_ANOMALY": 80.4579, "EPHEMERIS_TYPE": 0, "CLASSIFICATION_TYPE": "U", "NORAD_CAT_ID": 38251, "ELEMENT_SET_NO": 999, "REV_AT_EPOCH": 9268, "BSTAR": 0, "MEAN_MOTION_DOT": -5.3e-07, "MEAN_MOTION_DDOT": 0}, "tle": {"line1": "1 38251U 12018B   25358.07238729 -.00000053  00000+0  00000+0 0  9999", "line2": "2 38251  55.8118 310.0049 0015251 279.3729  80.4579  1.86229893 92685"}}, "geometry": {"type": "Point", "coordinates": [160.56590557057598, -36.876452524412066]}}, {"type": "Feature", "properties": {"norad_id": 38652, "name": "SES-5 (EGNOS/PRN 136)", "group": "gnss", "lat": -0.046648763216177454, "lon": -86.34423104564435, "alt_km": 35778.60740561327, "timestamp": "2025-12-25T11:37:44.677855+00:00", "meta": {"OBJECT_NAME": "SES-5 (EGNOS/PRN 136)", "OBJECT_ID": "2012-036A", "EPOCH": "2025-12-24T23:23:41.912160", "MEAN_MOTION": 1.00270343, "ECCENTRICITY": 0.0001861, "INCLINATION": 0.058, "RA_OF_ASC_NODE": 304.9824, "ARG_OF_PERICENTER": 323.8941, "MEAN_ANOMALY": 180.7728, "EPHEMERIS_TYPE": 0, "CLASSIFICATION_TYPE": "U", "NORAD_CAT_ID": 38652, "ELEMENT_SET_NO": 999, "REV_AT_EPOCH": 4271, "BSTAR": 0, "MEAN_MOTION_DOT": 5.5e-07, "MEAN_MOTION_DDOT": 0}, "tle": {"line1": "1 38652U 12036A   25358.97479065  .00000055  00000+0  00000+0 0  9994", "line2": "2 38652   0.0580 304.9824 0001861 323.8941 180.7728  1.00270343 42712"}}, "geometry": {"type": "Point", "coordinates": [-86.34423104564435, -0.046648763216177454]}}, {"type": "Feature", "properties": {"norad_id": 38775, "name": "BEIDOU-2 M6 (C14)", "group": "gnss", "lat": 46.60627964308232, "lon": 113.29950303216766, "alt_km": 21515.540856040072, "timestamp": "2025-12-25T11:37:44.677868+00:00", "meta": {"OBJECT_NAME": "BEIDOU-2 M6 (C14)", "OBJECT_ID": "2012-050B", "EPOCH": "2025-12-24T07:41:05.368128", "MEAN_MOTION": 1.86230801, "ECCENTRICITY": 0.00114872, "INCLINATION": 56.388, "RA_OF_ASC_NODE": 68.6832, "ARG_OF_PERICENTER": 343.1884, "MEAN_ANOMALY": 16.8281, "EPHEMERIS_TYPE": 0, "CLASSIFICATION_TYPE": "U", "NORAD_CAT_ID": 38775, "ELEMENT_SET_NO": 999, "REV_AT_EPOCH": 9005, "BSTAR": 0, "MEAN_MOTION_DOT": -2.4e-07, "MEAN_MOTION_DDOT": 0}, "tle": {"line1": "1 38775U 12050B   25358.32020102 -.00000024  00000+0  00000+0 0  9996", "line2": "2 38775  56.3880  68.6832 0011487 343.1884  16.8281  1.86230801 90056"}}, "geometry": {"type": "Point", "coordinates": [113.29950303216766, 46.60627964308232]}}]}